#aV2019  2 22  0  0  0.00000000     288 DD+AD WGS84 FIT  NGA
## 2041 432000.00000000   300.00000000 58536 0.0000000000000
+   31     1  2  3  5  6  7  8  9 10 11 12 13 14 15 16 17 18
+         19 20 21 22 23 24 25 26 27 28 29 30 31 32  0  0  0
+          0  0  0  0  0  0  0  0  0  0  0  0  0  0  0  0  0
+          0  0  0  0  0  0  0  0  0  0  0  0  0  0  0  0  0
+          0  0  0  0  0  0  0  0  0  0  0  0  0  0  0  0  0
++         2  2  2  2  2  2  2  2  2  2  2  2  2  2  2  2  2
++         2  2  2  2  2  2  2  2  2  2  2  2  2  2  0  0  0
++         0  0  0  0  0  0  0  0  0  0  0  0  0  0  0  0  0
++         0  0  0  0  0  0  0  0  0  0  0  0  0  0  0  0  0
++         0  0  0  0  0  0  0  0  0  0  0  0  0  0  0  0  0
%c cc cc ccc ccc cccc cccc cccc cccc ccccc ccccc ccccc ccccc
%c cc cc ccc ccc cccc cccc cccc cccc ccccc ccccc ccccc ccccc
%f  0.0000000  0.000000000  0.00000000000  0.000000000000000
%f  0.0000000  0.000000000  0.00000000000  0.000000000000000
%i    0    0    0    0      0      0      0      0         0
%i    0    0    0    0      0      0      0      0         0
/*      NGA, ST. LOUIS,MO.                                  
/*   EPHEMERIS COMPUTED FROM 2 DAYS OF DATA                 
/*   EPOCHA v3 SMOOTHER                                     
/*   G1762 IERS2010 SATAF SATAPC                            
*  2019  2 22 13 10  0.00000000
P  1 -13438.183263   9583.611256  20564.066890   -167.981786                    
V  1  -2511.467102 -26442.118921  10898.011993     -0.071146                    
P  2  13809.012690  14764.211026 -16716.267263   -146.437741                    
V  2    809.068754  22418.785306  19587.285031     -0.097909                    
P  3 -23142.448387  12473.025255   3442.276629    184.057270                    
V  3   2143.360135  -4773.487847  31448.195162      0.015936                    
P  5  18678.188048   3328.934060 -18785.475176      1.124020                    
V  5 -18477.360022  14711.324222 -15664.035373      0.000627                    
P  6   7712.175855  23727.957452  -9026.606520    270.198591                    
V  6  -1462.870995  11636.313151  29222.610931     -0.083540                    
P  7  -7268.324742  22290.789110 -11773.710006     27.715764                    
V  7  -3637.477825 -15359.948020 -26745.089932     -0.072431                    
P  8 -24471.208926  -4377.574039   9669.971714   -133.699880                    
V  8 -10038.709136  -7139.591055 -28581.760765     -0.013843                    
P  9  -8424.303295  13008.585880 -21617.647904    455.004995                    
V  9 -24586.613250 -12018.677134   2344.070805     -0.053809                    
P 10   2081.687625 -17792.823760  19600.039582    111.596340                    
V 10  21364.968968 -12710.609167 -14034.420612     -0.078459                    
P 11 -15591.370736   4720.005591  20426.257191   -656.170890                    
V 11 -12560.091045 -24375.546117  -4089.248123      0.061380                    
P 12  23978.890829  -9926.209166   4964.243639    265.818602                    
V 12  -4618.076696   5184.142698  31554.443681     -0.032084                    
P 13  23201.807271  12485.732929   3389.921054    -74.076800                    
V 13   2312.225163   4563.579988 -31506.271965      0.013078                    
P 14 -15734.065974 -18533.429857  11214.507204    -90.784066                    
V 14  12910.278927   5135.498365  27174.379307      0.012689                    
P 15  24347.672199    761.908239  10781.046712   -326.690131                    
V 15  11949.047387   7922.444423 -26510.858711      0.017587                    
P 16 -19170.289291  -3459.381591 -18431.496935    -20.893170                    
V 16  19602.263872 -11723.907562 -17938.739183     -0.025151                    
P 17   7541.200236  18194.532469  18274.143420     13.517586                    
V 17 -19925.469588 -10038.134873  18547.702405      0.056533                    
P 18 -15320.647411  -1553.703756  21172.405893     28.488565                    
V 18  -2747.484039 -27906.464714  -3810.310117      0.037735                    
P 19  15574.986023  18321.945938  10870.855028   -349.700175                    
V 19 -13155.016450  -5845.111288  28046.808715      0.041853                    
P 20  10325.680935 -20931.278441  12437.861113    522.459539                    
V 20  14332.560687  -7982.946796 -25249.088877      0.003805                    
P 21   3046.925805 -24821.755247  -8306.340908   -245.328417                    
V 21   4459.148154  11195.310640 -28908.636194      0.072518                    
P 22 -23109.346823   7334.297746  11015.093997   -650.598112                    
V 22   8876.023931 -10986.895850  26560.073670     -0.079613                    
P 23 -18991.014300   5199.724589 -17695.130513   -196.374592                    
V 23 -20042.479850 -11422.651802  17432.781366      0.013141                    
P 24  14992.204593  -5126.642121  21135.275305    -62.499745                    
V 24   3667.271866  27070.154655   4261.547971     -0.005477                    
P 25  19138.089070 -17345.741104  -5770.763781   -724.020486                    
V 25   7357.397031  -1765.138754  31027.694686     -0.053361                    
P 26 -11302.099598 -10761.025440 -21517.356750    131.331710                    
V 26  22224.884991 -15866.915620  -3567.991926      0.102651                    
P 27 -23870.066321 -12009.769645   -350.843653    -72.629647                    
V 27   1184.090745  -1654.424067 -31942.999188     -0.074987                    
P 28  -4852.732809  17679.323507  19864.728729    765.118424                    
V 28 -21311.853384  10668.026541 -15086.833995      0.007054                    
P 29  13210.657840  -8715.322824 -21350.458094    264.727061                    
V 29  23099.108185  13970.707889   8602.843985     -0.087482                    
P 30   -317.812817  26438.774519  -1083.422152    -56.999076                    
V 30  -3612.796145  -1339.504805 -31389.983640     -0.064589                    
P 31  -8077.379381 -22795.830199 -10440.468938     56.861855                    
V 31   2374.452089 -13506.980881  28079.590806     -0.026416                    
P 32 -11037.256424 -18043.801766  16174.490572   -214.177314                    
V 32  19191.572770   7238.875457  21120.833981      0.190751                    
EOF
